ASTROCAST-0402          
1 55109U 23001DE  26068.80661100  .00010930  00000+0  41835-3 0  9996
2 55109  97.5556 160.6821 0004209 216.6984 143.3966 15.26734153129364
STARLINK-33874          
1 63825U 25092X   26068.29578196  .00018619  00000+0  68397-3 0  9991
2 63825  42.9998 174.8326 0001938 260.7571  99.3062 15.27601246 48608
